{
  "type": "FeatureCollection",
  "features": [
    {
      "type": "Feature",
      "properties": {
        "norad_id": 38474,
        "name": "IRIDIUM 33 DEB",
        "group": "iridium-33-debris",
        "lat": -57.30257829668932,
        "lon": -165.8379382370264,
        "alt_km": 749.5334829781204,
        "timestamp": "2025-12-16T10:53:45.856886+00:00",
        "meta_object_name": "IRIDIUM 33 DEB",
        "meta_object_id": "1997-051AAB",
        "meta_epoch": "2025-12-13T08:58:04.646496",
        "meta_mean_motion": 14.5069505,
        "meta_eccentricity": 0.00282612,
        "meta_inclination": 86.3454,
        "meta_ra_of_asc_node": 9.789,
        "meta_arg_of_pericenter": 86.1077,
        "meta_mean_anomaly": 274.3358,
        "meta_ephemeris_type": 0,
        "meta_classification_type": "U",
        "meta_norad_cat_id": 38474,
        "meta_element_set_no": 999,
        "meta_rev_at_epoch": 65327,
        "meta_bstar": 0.00084561127,
        "meta_mean_motion_dot": 3.359e-05,
        "meta_mean_motion_ddot": 0,
        "tle_line1": "1 38474U 97051AAB 25347.37366489  .00003359  00000+0  84561-3 0  9991",
        "tle_line2": "2 38474  86.3454   9.7890 0028261  86.1077 274.3358 14.50695050653279"
      },
      "geometry": {
        "type": "Point",
        "coordinates": [
          -165.8379382370264,
          -57.30257829668932
        ]
      }
    },
    {
      "type": "Feature",
      "properties": {
        "norad_id": 39777,
        "name": "IRIDIUM 33 DEB",
        "group": "iridium-33-debris",
        "lat": 1.0667267571093608,
        "lon": 173.3155227707082,
        "alt_km": 749.1985272638549,
        "timestamp": "2025-12-16T10:53:45.856897+00:00",
        "meta_object_name": "IRIDIUM 33 DEB",
        "meta_object_id": "1997-051AAJ",
        "meta_epoch": "2025-12-12T06:18:37.183104",
        "meta_mean_motion": 14.5641282,
        "meta_eccentricity": 0.00598335,
        "meta_inclination": 85.9631,
        "meta_ra_of_asc_node": 175.2743,
        "meta_arg_of_pericenter": 188.1374,
        "meta_mean_anomaly": 171.887,
        "meta_ephemeris_type": 0,
        "meta_classification_type": "U",
        "meta_norad_cat_id": 39777,
        "meta_element_set_no": 999,
        "meta_rev_at_epoch": 60178,
        "meta_bstar": 0.0041697031,
        "meta_mean_motion_dot": 0.00019016,
        "meta_mean_motion_ddot": 0,
        "tle_line1": "1 39777U 97051AAJ 25346.26293036  .00019016  00000+0  41697-2 0  9991",
        "tle_line2": "2 39777  85.9631 175.2743 0059833 188.1374 171.8870 14.56412820601783"
      },
      "geometry": {
        "type": "Point",
        "coordinates": [
          173.3155227707082,
          1.0667267571093608
        ]
      }
    },
    {
      "type": "Feature",
      "properties": {
        "norad_id": 39778,
        "name": "IRIDIUM 33 DEB",
        "group": "iridium-33-debris",
        "lat": 13.28890200509474,
        "lon": -139.24356862431168,
        "alt_km": 716.8299964635171,
        "timestamp": "2025-12-16T10:53:45.856907+00:00",
        "meta_object_name": "IRIDIUM 33 DEB",
        "meta_object_id": "1997-051AAK",
        "meta_epoch": "2025-12-15T02:45:26.160768",
        "meta_mean_motion": 14.54282095,
        "meta_eccentricity": 0.00077486,
        "meta_inclination": 86.3779,
        "meta_ra_of_asc_node": 42.1948,
        "meta_arg_of_pericenter": 34.959,
        "meta_mean_anomaly": 325.2125,
        "meta_ephemeris_type": 0,
        "meta_classification_type": "U",
        "meta_norad_cat_id": 39778,
        "meta_element_set_no": 999,
        "meta_rev_at_epoch": 60727,
        "meta_bstar": 0.00058175197,
        "meta_mean_motion_dot": 2.487e-05,
        "meta_mean_motion_ddot": 0,
        "tle_line1": "1 39778U 97051AAK 25349.11488612  .00002487  00000+0  58175-3 0  9999",
        "tle_line2": "2 39778  86.3779  42.1948 0007748  34.9590 325.2125 14.54282095607272"
      },
      "geometry": {
        "type": "Point",
        "coordinates": [
          -139.24356862431168,
          13.28890200509474
        ]
      }
    },
    {
      "type": "Feature",
      "properties": {
        "norad_id": 39781,
        "name": "IRIDIUM 33 DEB",
        "group": "iridium-33-debris",
        "lat": -12.10551210725797,
        "lon": 77.22834819552966,
        "alt_km": 780.9510225927716,
        "timestamp": "2025-12-16T10:53:45.856917+00:00",
        "meta_object_name": "IRIDIUM 33 DEB",
        "meta_object_id": "1997-051AAN",
        "meta_epoch": "2025-12-15T00:15:44.903232",
        "meta_mean_motion": 14.2070789,
        "meta_eccentricity": 0.01756389,
        "meta_inclination": 86.371,
        "meta_ra_of_asc_node": 257.043,
        "meta_arg_of_pericenter": 266.0338,
        "meta_mean_anomaly": 111.7662,
        "meta_ephemeris_type": 0,
        "meta_classification_type": "U",
        "meta_norad_cat_id": 39781,
        "meta_element_set_no": 999,
        "meta_rev_at_epoch": 8139,
        "meta_bstar": 0.0031777078,
        "meta_mean_motion_dot": 8.021e-05,
        "meta_mean_motion_ddot": 0,
        "tle_line1": "1 39781U 97051AAN 25349.01093638  .00008021  00000+0  31777-2 0  9990",
        "tle_line2": "2 39781  86.3710 257.0430 0175638 266.0338 111.7662 14.20707890 81397"
      },
      "geometry": {
        "type": "Point",
        "coordinates": [
          77.22834819552966,
          -12.10551210725797
        ]
      }
    },
    {
      "type": "Feature",
      "properties": {
        "norad_id": 39783,
        "name": "IRIDIUM 33 DEB",
        "group": "iridium-33-debris",
        "lat": -36.57791214137661,
        "lon": 76.21483647444981,
        "alt_km": 468.1076125060481,
        "timestamp": "2025-12-16T10:53:45.856928+00:00",
        "meta_object_name": "IRIDIUM 33 DEB",
        "meta_object_id": "1997-051AAQ",
        "meta_epoch": "2025-11-16T15:05:40.850592",
        "meta_mean_motion": 15.19327111,
        "meta_eccentricity": 0.00057535,
        "meta_inclination": 86.1306,
        "meta_ra_of_asc_node": 268.8004,
        "meta_arg_of_pericenter": 179.9151,
        "meta_mean_anomaly": 1.8316,
        "meta_ephemeris_type": 0,
        "meta_classification_type": "U",
        "meta_norad_cat_id": 39783,
        "meta_element_set_no": 999,
        "meta_rev_at_epoch": 60401,
        "meta_bstar": 0.010398125,
        "meta_mean_motion_dot": 0.00226179,
        "meta_mean_motion_ddot": 0,
        "tle_line1": "1 39783U 97051AAQ 25320.62894503  .00226179  00000+0  10398-1 0  9999",
        "tle_line2": "2 39783  86.1306 268.8004 0005753 179.9151   1.8316 15.19327111604018"
      },
      "geometry": {
        "type": "Point",
        "coordinates": [
          76.21483647444981,
          -36.57791214137661
        ]
      }
    },
    {
      "type": "Feature",
      "properties": {
        "norad_id": 40996,
        "name": "IRIDIUM 33 DEB",
        "group": "iridium-33-debris",
        "lat": -66.22061318705043,
        "lon": -8.651100285434957,
        "alt_km": 589.0595213097859,
        "timestamp": "2025-12-16T10:53:45.856939+00:00",
        "meta_object_name": "IRIDIUM 33 DEB",
        "meta_object_id": "1997-051ABJ",
        "meta_epoch": "2025-12-15T11:47:42.645984",
        "meta_mean_motion": 14.96438561,
        "meta_eccentricity": 0.00116545,
        "meta_inclination": 86.3518,
        "meta_ra_of_asc_node": 0.1244,
        "meta_arg_of_pericenter": 56.0397,
        "meta_mean_anomaly": 95.6858,
        "meta_ephemeris_type": 0,
        "meta_classification_type": "U",
        "meta_norad_cat_id": 40996,
        "meta_element_set_no": 999,
        "meta_rev_at_epoch": 62529,
        "meta_bstar": 0.0017261514,
        "meta_mean_motion_dot": 0.00019657,
        "meta_mean_motion_ddot": 0,
        "tle_line1": "1 40996U 97051ABJ 25349.49146581  .00019657  00000+0  17262-2 0  9998",
        "tle_line2": "2 40996  86.3518   0.1244 0011654  56.0397  95.6858 14.96438561625291"
      },
      "geometry": {
        "type": "Point",
        "coordinates": [
          -8.651100285434957,
          -66.22061318705043
        ]
      }
    },
    {
      "type": "Feature",
      "properties": {
        "norad_id": 40998,
        "name": "IRIDIUM 33 DEB",
        "group": "iridium-33-debris",
        "lat": 63.390077431315746,
        "lon": 59.32293249708537,
        "alt_km": 728.9615129682252,
        "timestamp": "2025-12-16T10:53:45.856949+00:00",
        "meta_object_name": "IRIDIUM 33 DEB",
        "meta_object_id": "1997-051ABL",
        "meta_epoch": "2025-12-14T22:36:58.178592",
        "meta_mean_motion": 14.45106117,
        "meta_eccentricity": 0.00094247,
        "meta_inclination": 86.383,
        "meta_ra_of_asc_node": 52.7149,
        "meta_arg_of_pericenter": 78.6428,
        "meta_mean_anomaly": 45.8037,
        "meta_ephemeris_type": 0,
        "meta_classification_type": "U",
        "meta_norad_cat_id": 40998,
        "meta_element_set_no": 999,
        "meta_rev_at_epoch": 6713,
        "meta_bstar": 0.0004149731,
        "meta_mean_motion_dot": 1.471e-05,
        "meta_mean_motion_ddot": 0,
        "tle_line1": "1 40998U 97051ABL 25348.94234003  .00001471  00000+0  41497-3 0  9999",
        "tle_line2": "2 40998  86.3830  52.7149 0009424  78.6428  45.8037 14.45106117 67136"
      },
      "geometry": {
        "type": "Point",
        "coordinates": [
          59.32293249708537,
          63.390077431315746
        ]
      }
    }
  ]
}